NORAD_CAT_ID,OBJECT_NAME,OBJECT_TYPE,EPOCH,MEAN_MOTION,ECCENTRICITY,INCLINATION,RA_OF_ASC_NODE,ARG_OF_PERICENTER,MEAN_ANOMALY,BSTAR,MEAN_MOTION_DOT,MEAN_MOTION_DDOT,TLE_LINE0,TLE_LINE1,TLE_LINE2,SEMIMAJOR_AXIS,PERIOD,APOGEE,PERIGEE,DECAYED
55748.0,STARLINK-5580,PAYLOAD,2023-05-23 10:12:53,14.98324213,0.0003325,69.9996,299.4679,272.5084,87.5695,8.0269e-05,8.65e-06,0.0,0 STARLINK-5580,1 55748U 23028H   23143.42561883  .00000865  00000-0  80269-4 0  9992,2 55748  69.9996 299.4679 0003325 272.5084  87.5695 14.98324213 13063,6950.211,96.107,574.387,569.765,0.0
55748.0,STARLINK-5580,PAYLOAD,2023-05-23 19:49:41,14.98325527,0.0003329,69.9998,298.4576,269.5663,90.5114,6.2522e-05,6.53e-06,0.0,0 STARLINK-5580,1 55748U 23028H   23143.82617917  .00000653  00000-0  62522-4 0  9993,2 55748  69.9998 298.4576 0003329 269.5663  90.5114 14.98325527 13129,6950.207,96.107,574.385,569.758,0.0
55748.0,STARLINK-5580,PAYLOAD,2023-05-24 10:14:54,14.98330569,0.0003313,69.9999,296.9428,269.8627,90.2152,-2.0145e-05,-3.33e-06,0.0,0 STARLINK-5580,1 55748U 23028H   23144.42701923 -.00000333  00000-0 -20145-4 0  9993,2 55748  69.9999 296.9428 0003313 269.8627  90.2152 14.98330569 13216,6950.191,96.107,574.359,569.754,0.0
55748.0,STARLINK-5580,PAYLOAD,2023-05-24 15:03:18,14.98329449,0.0003331,69.9999,296.4378,269.8161,90.2617,-2.9609e-05,-4.46e-06,0.0,0 STARLINK-5580,1 55748U 23028H   23144.62730001 -.00000446  00000-0 -29609-4 0  9993,2 55748  69.9999 296.4378 0003331 269.8161  90.2617 14.98329449 13242,6950.195,96.107,574.375,569.744,0.0
55748.0,STARLINK-5580,PAYLOAD,2023-05-25 18:17:35,14.98333226,0.0003437,69.9998,293.5764,269.7271,90.3494,5.6238e-05,5.78e-06,0.0,0 STARLINK-5580,1 55748U 23028H   23145.76221418  .00000578  00000-0  56238-4 0  9998,2 55748  69.9998 293.5764 0003437 269.7271  90.3494 14.98333226 13417,6950.183,96.107,574.437,569.659,0.0
55748.0,STARLINK-5580,PAYLOAD,2023-05-25 19:53:43,14.98333939,0.0003433,69.9999,293.408,269.6924,90.3842,6.2982e-05,6.59e-06,0.0,0 STARLINK-5580,1 55748U 23028H   23145.82897337  .00000659  00000-0  62982-4 0  9997,2 55748  69.9999 293.4080 0003433 269.6924  90.3842 14.98333939 13427,6950.181,96.107,574.432,569.66,0.0
55748.0,STARLINK-5580,PAYLOAD,2023-05-26 13:31:12,14.98329271,0.0003419,70.0,291.5562,268.9091,91.1676,2.1493e-05,1.63e-06,0.0,0 STARLINK-5580,1 55748U 23028H   23146.56333691  .00000163  00000-0  21493-4 0  9999,2 55748  70.0000 291.5562 0003419 268.9091  91.1676 14.98329271 13538,6950.195,96.107,574.436,569.684,0.0
55748.0,STARLINK-5580,PAYLOAD,2023-05-26 18:19:36,14.9833016,0.000341,70.0,291.0512,268.7159,91.3609,3.0174e-05,2.67e-06,0.0,0 STARLINK-5580,1 55748U 23028H   23146.76361607  .00000267  00000-0  30174-4 0  9990,2 55748  70.0000 291.0512 0003410 268.7159  91.3609 14.98330160 13562,6950.192,96.107,574.427,569.687,0.0
55748.0,STARLINK-5580,PAYLOAD,2023-05-26 19:55:44,14.9833065,0.0003409,70.0001,290.8829,268.8894,91.1874,3.4554e-05,3.19e-06,0.0,0 STARLINK-5580,1 55748U 23028H   23146.83037559  .00000319  00000-0  34554-4 0  9998,2 55748  70.0001 290.8829 0003409 268.8894  91.1874 14.98330650 13573,6950.191,96.107,574.425,569.687,0.0
55748.0,STARLINK-5580,PAYLOAD,2023-05-27 19:57:45,14.98333228,0.0003383,70.0002,288.3583,266.8566,93.2206,-4.2453e-06,-1.44e-06,0.0,0 STARLINK-5580,1 55748U 23028H   23147.83177347 -.00000144  00000-0 -42453-5 0  9995,2 55748  70.0002 288.3583 0003383 266.8566  93.2206 14.98333228 13721,6950.183,96.107,574.399,569.697,0.0
55748.0,STARLINK-5580,PAYLOAD,2023-05-28 02:22:17,14.98331827,0.0003391,70.0004,287.685,268.1738,91.9033,-8.8909e-06,-1.99e-06,0.0,0 STARLINK-5580,1 55748U 23028H   23148.09881400 -.00000199  00000-0 -88909-5 0  9992,2 55748  70.0004 287.6850 0003391 268.1738  91.9033 14.98331827 13767,6950.187,96.107,574.409,569.695,0.0
55748.0,STARLINK-5580,PAYLOAD,2023-05-28 18:23:38,14.98332202,0.0003397,70.0003,286.002,267.8697,92.2073,2.6709e-05,2.26e-06,0.0,0 STARLINK-5580,1 55748U 23028H   23148.76641223  .00000226  00000-0  26709-4 0  9991,2 55748  70.0003 286.0020 0003397 267.8697  92.2073 14.98332202 13861,6950.186,96.107,574.412,569.69,0.0
55748.0,STARLINK-5580,PAYLOAD,2023-05-29 02:24:18,14.9833162,0.0003397,70.0002,285.1602,270.309,89.768,1.3135e-05,6.4e-07,0.0,0 STARLINK-5580,1 55748U 23028H   23149.10021266  .00000064  00000-0  13135-4 0  9998,2 55748  70.0002 285.1602 0003397 270.3090  89.7680 14.98331620 13916,6950.188,96.107,574.414,569.692,0.0
55748.0,STARLINK-5580,PAYLOAD,2023-05-29 13:37:14,14.98330043,0.0003406,70.0003,283.9823,269.8778,90.1991,-1.4656e-05,-2.68e-06,0.0,0 STARLINK-5580,1 55748U 23028H   23149.56753391 -.00000268  00000-0 -14656-4 0  9996,2 55748  70.0003 283.9823 0003406 269.8778  90.1991 14.98330043 13981,6950.193,96.107,574.425,569.691,0.0
55748.0,STARLINK-5580,PAYLOAD,2023-05-29 18:25:38,14.98334346,0.0003275,70.0003,283.4772,268.0885,91.9899,-6.9541e-05,-9.23e-06,0.0,0 STARLINK-5580,1 55748U 23028H   23149.76781231 -.00000923  00000-0 -69541-4 0  9993,2 55748  70.0003 283.4772 0003275 268.0885  91.9899 14.98334346 14014,6950.179,96.107,574.321,569.768,0.0
55748.0,STARLINK-5580,PAYLOAD,2023-05-30 02:26:19,14.9832336,0.0003388,70.0003,282.6358,270.0672,90.0099,5.463e-05,5.59e-06,0.0,0 STARLINK-5580,1 55748U 23028H   23150.10161649  .00000559  00000-0  54630-4 0  9994,2 55748  70.0003 282.6358 0003388 270.0672  90.0099 14.98323360 14068,6950.213,96.107,574.433,569.724,0.0
55748.0,STARLINK-5580,PAYLOAD,2023-05-30 12:03:07,14.98338154,0.0003345,70.0002,281.626,270.6939,89.3837,-0.00018959,-2.355e-05,0.0,0 STARLINK-5580,1 55748U 23028H   23150.50217307 -.00002355  00000-0 -18959-3 0  9992,2 55748  70.0002 281.6260 0003345 270.6939  89.3837 14.98338154 14128,6950.168,96.106,574.358,569.708,0.0
55748.0,STARLINK-5580,PAYLOAD,2023-05-30 18:27:40,14.98329741,0.0003428,70.0004,280.9527,270.24,89.8366,-1.0592e-05,-2.19e-06,0.0,0 STARLINK-5580,1 55748U 23028H   23150.76921414 -.00000219  00000-0 -10592-4 0  9994,2 55748  70.0004 280.9527 0003428 270.2400  89.8366 14.98329741 14167,6950.194,96.107,574.441,569.676,0.0
55748.0,STARLINK-5580,PAYLOAD,2023-05-31 02:28:20,14.98340143,0.0003312,70.0005,280.1109,271.344,88.7339,-0.00018883,-2.346e-05,0.0,0 STARLINK-5580,1 55748U 23028H   23151.10301151 -.00002346  00000-0 -18883-3 0  9996,2 55748  70.0005 280.1109 0003312 271.3440  88.7339 14.98340143 14217,6950.162,96.106,574.328,569.725,0.0
55748.0,STARLINK-5580,PAYLOAD,2023-05-31 13:41:16,14.98331743,0.0003471,70.0003,278.9323,269.6057,90.4705,4.3439e-05,4.25e-06,0.0,0 STARLINK-5580,1 55748U 23028H   23151.57033075  .00000425  00000-0  43439-4 0  9994,2 55748  70.0003 278.9323 0003471 269.6057  90.4705 14.98331743 14288,6950.188,96.107,574.465,569.64,0.0
55748.0,STARLINK-5580,PAYLOAD,2023-05-31 16:53:32,14.98334498,0.0003486,70.0002,278.5955,269.0278,91.0482,5.3918e-05,5.5e-06,0.0,0 STARLINK-5580,1 55748U 23028H   23151.70384832  .00000550  00000-0  53918-4 0  9991,2 55748  70.0002 278.5955 0003486 269.0278  91.0482 14.98334498 14301,6950.179,96.107,574.467,569.621,0.0
55748.0,STARLINK-5580,PAYLOAD,2023-06-01 10:31:01,14.98328221,0.0003452,70.0003,276.744,268.9163,91.16,4.8991e-06,-3.5e-07,0.0,0 STARLINK-5580,1 55748U 23028H   23152.43821311 -.00000035  00000-0  48991-5 0  9995,2 55748  70.0003 276.7440 0003452 268.9163  91.1600 14.98328221 14417,6950.198,96.107,574.463,569.664,0.0
55748.0,STARLINK-5580,PAYLOAD,2023-06-02 10:33:02,14.98328172,0.0003376,70.0004,274.2193,269.0556,91.0217,-6.948e-05,-9.22e-06,0.0,0 STARLINK-5580,1 55748U 23028H   23153.43961554 -.00000922  00000-0 -69480-4 0  9991,2 55748  70.0004 274.2193 0003376 269.0556  91.0217 14.98328172 14563,6950.199,96.107,574.41,569.717,0.0
55748.0,STARLINK-5580,PAYLOAD,2023-06-02 13:45:18,14.98327342,0.0003391,70.0004,273.8826,268.9781,91.099,-7.3406e-05,-9.69e-06,0.0,0 STARLINK-5580,1 55748U 23028H   23153.57313638 -.00000969  00000-0 -73406-4 0  9994,2 55748  70.0004 273.8826 0003391 268.9781  91.0990 14.98327342 14584,6950.201,96.107,574.423,569.709,0.0
55748.0,STARLINK-5580,PAYLOAD,2023-06-02 18:33:43,14.98329072,0.0003348,70.0005,273.3783,267.2229,92.8546,-3.8358e-05,-5.51e-06,0.0,0 STARLINK-5580,1 55748U 23028H   23153.77341450 -.00000551  00000-0 -38358-4 0  9993,2 55748  70.0005 273.3783 0003348 267.2229  92.8546 14.98329072 14615,6950.196,96.107,574.388,569.734,0.0
55748.0,STARLINK-5580,PAYLOAD,2023-06-03 10:35:03,14.98331069,0.0003452,70.0001,271.6945,267.1344,92.942,9.5415e-06,2.1e-07,0.0,0 STARLINK-5580,1 55748U 23028H   23154.44101195  .00000021  00000-0  95415-5 0  9996,2 55748  70.0001 271.6945 0003452 267.1344  92.9420 14.98331069 14717,6950.19,96.107,574.454,569.655,0.0
55748.0,STARLINK-5580,PAYLOAD,2023-06-03 13:47:19,14.98331449,0.0003445,70.0001,271.3579,267.174,92.9025,1.5019e-05,8.6e-07,0.0,0 STARLINK-5580,1 55748U 23028H   23154.57453147  .00000086  00000-0  15019-4 0  9999,2 55748  70.0001 271.3579 0003445 267.1740  92.9025 14.98331449 14734,6950.188,96.107,574.448,569.659,0.0
55748.0,STARLINK-5580,PAYLOAD,2023-06-03 16:59:35,14.98331706,0.000345,70.0001,271.0213,267.2609,92.8156,1.7445e-05,1.15e-06,0.0,0 STARLINK-5580,1 55748U 23028H   23154.70805116  .00000115  00000-0  17445-4 0  9999,2 55748  70.0001 271.0213 0003450 267.2609  92.8156 14.98331706 14759,6950.188,96.107,574.45,569.655,0.0
55748.0,STARLINK-5580,PAYLOAD,2023-06-04 10:37:04,14.98327832,0.0003523,69.9999,269.1692,270.8892,89.1863,6.4718e-05,6.79e-06,0.0,0 STARLINK-5580,1 55748U 23028H   23155.44241230  .00000679  00000-0  64718-4 0  9992,2 55748  69.9999 269.1692 0003523 270.8892  89.1863 14.98327832 14867,6950.2,96.107,574.513,569.616,0.0
55748.0,STARLINK-5580,PAYLOAD,2023-06-04 13:49:20,14.98328404,0.0003567,69.9999,268.8327,270.7536,89.3214,3.8676e-05,3.68e-06,0.0,0 STARLINK-5580,1 55748U 23028H   23155.57593273  .00000368  00000-0  38676-4 0  9992,2 55748  69.9999 268.8327 0003567 270.7536  89.3214 14.98328404 14880,6950.198,96.107,574.542,569.584,0.0
